[
    {
        "Altitude(m)": 554778.5709285948,
        "Argument of Periapsis(deg)": 0.006622991110713501,
        "Eccentricity": 0.0,
        "Inclination(deg)": 53.0,
        "Latitude(deg)": -3.651067018846991,
        "Longitude(deg)": -73.51385638761123,
        "Mean Anomaly(deg)": -4.453807132422435,
        "RAAN(deg)": 29.990143368528013,
        "Satellite Name": "Starlink Shell 1 153",
        "Satellite Number": 153,
        "Semi-Major Axis(m)": 6931778.249405717,
        "Time(s)": 190
    },
    {
        "Altitude(m)": 554694.5659304244,
        "Argument of Periapsis(deg)": 0.0069715695902247375,
        "Eccentricity": 0.0,
        "Inclination(deg)": 53.0,
        "Latitude(deg)": -3.147712586636453,
        "Longitude(deg)": -73.17721829263373,
        "Mean Anomaly(deg)": -3.826975928865726,
        "RAAN(deg)": 29.98962459845054,
        "Satellite Name": "Starlink Shell 1 153",
        "Satellite Number": 153,
        "Semi-Major Axis(m)": 6931778.249405717,
        "Time(s)": 200
    },
    {
        "Altitude(m)": 554613.2824851717,
        "Argument of Periapsis(deg)": 0.007320148069735974,
        "Eccentricity": 0.0,
        "Inclination(deg)": 53.0,
        "Latitude(deg)": -2.644205148351596,
        "Longitude(deg)": -72.8409342940975,
        "Mean Anomaly(deg)": -3.200144725309021,
        "RAAN(deg)": 29.98910582837307,
        "Satellite Name": "Starlink Shell 1 153",
        "Satellite Number": 153,
        "Semi-Major Axis(m)": 6931778.249405717,
        "Time(s)": 210
    },
    {
        "Altitude(m)": 554534.7363336821,
        "Argument of Periapsis(deg)": 0.007668726549247212,
        "Eccentricity": 0.0,
        "Inclination(deg)": 53.0,
        "Latitude(deg)": -2.1405677684446967,
        "Longitude(deg)": -72.50494648390094,
        "Mean Anomaly(deg)": -2.5733135217523064,
        "RAAN(deg)": 29.988587058295597,
        "Satellite Name": "Starlink Shell 1 153",
        "Satellite Number": 153,
        "Semi-Major Axis(m)": 6931778.249405717,
        "Time(s)": 220
    },
    {
        "Altitude(m)": 554458.9418773635,
        "Argument of Periapsis(deg)": 0.00801730502875845,
        "Eccentricity": 0.0,
        "Inclination(deg)": 53.0,
        "Latitude(deg)": -1.636823453634366,
        "Longitude(deg)": -72.16919708076003,
        "Mean Anomaly(deg)": -1.9464823181955981,
        "RAAN(deg)": 29.988068288218123,
        "Satellite Name": "Starlink Shell 1 153",
        "Satellite Number": 153,
        "Semi-Major Axis(m)": 6931778.249405717,
        "Time(s)": 230
    },
    {
        "Altitude(m)": 554385.9121737655,
        "Argument of Periapsis(deg)": 0.008365883508269684,
        "Eccentricity": 0.0,
        "Inclination(deg)": 53.0,
        "Latitude(deg)": -1.1329951646977436,
        "Longitude(deg)": -71.83362790063269,
        "Mean Anomaly(deg)": -1.319651114638839,
        "RAAN(deg)": 29.987549518140654,
        "Satellite Name": "Starlink Shell 1 153",
        "Satellite Number": 153,
        "Semi-Major Axis(m)": 6931778.249405717,
        "Time(s)": 240
    },
    {
        "Altitude(m)": 554315.6589328048,
        "Argument of Periapsis(deg)": 0.008714461987780921,
        "Eccentricity": 0.0,
        "Inclination(deg)": 53.0,
        "Latitude(deg)": -0.6291058282180556,
        "Longitude(deg)": -71.49818134004359,
        "Mean Anomaly(deg)": -0.6928199110821242,
        "RAAN(deg)": 29.98703074806318,
        "Satellite Name": "Starlink Shell 1 153",
        "Satellite Number": 153,
        "Semi-Major Axis(m)": 6931778.249405717,
        "Time(s)": 250
    },
    {
        "Altitude(m)": 554248.1925136761,
        "Argument of Periapsis(deg)": 0.009063040467292158,
        "Eccentricity": 0.0,
        "Inclination(deg)": 53.0,
        "Latitude(deg)": -0.12517834829704608,
        "Longitude(deg)": -71.16279984655465,
        "Mean Anomaly(deg)": -0.06598870752547309,
        "RAAN(deg)": 29.986511977985707,
        "Satellite Name": "Starlink Shell 1 153",
        "Satellite Number": 153,
        "Semi-Major Axis(m)": 6931778.249405717,
        "Time(s)": 260
    },
    {
        "Altitude(m)": 554183.5219224563,
        "Argument of Periapsis(deg)": 0.009411618946803396,
        "Eccentricity": 0.0,
        "Inclination(deg)": 53.0,
        "Latitude(deg)": 0.37876438175543575,
        "Longitude(deg)": -70.82742538924751,
        "Mean Anomaly(deg)": 0.5608424960312862,
        "RAAN(deg)": 29.985993207908237,
        "Satellite Name": "Starlink Shell 1 153",
        "Satellite Number": 153,
        "Semi-Major Axis(m)": 6931778.249405717,
        "Time(s)": 270
    },
    {
        "Altitude(m)": 554121.6548103481,
        "Argument of Periapsis(deg)": 0.009760197426314633,
        "Eccentricity": 0.0,
        "Inclination(deg)": 53.0,
        "Latitude(deg)": 0.8826994677425026,
        "Longitude(deg)": -70.4920004420839,
        "Mean Anomaly(deg)": 1.1876736995880008,
        "RAAN(deg)": 29.985474437830757,
        "Satellite Name": "Starlink Shell 1 153",
        "Satellite Number": 153,
        "Semi-Major Axis(m)": 6931778.249405717,
        "Time(s)": 280
    },
    {
        "Altitude(m)": 554062.597472626,
        "Argument of Periapsis(deg)": 0.01010877590582587,
        "Eccentricity": 0.0,
        "Inclination(deg)": 53.0,
        "Latitude(deg)": 1.3866040029031266,
        "Longitude(deg)": -70.1564674543889,
        "Mean Anomaly(deg)": 1.8145049031447091,
        "RAAN(deg)": 29.984955667753287,
        "Satellite Name": "Starlink Shell 1 153",
        "Satellite Number": 153,
        "Semi-Major Axis(m)": 6931778.249405717,
        "Time(s)": 290
    },
    {
        "Altitude(m)": 554006.3548482864,
        "Argument of Periapsis(deg)": 0.010457354385337106,
        "Eccentricity": 0.0,
        "Inclination(deg)": 53.0,
        "Latitude(deg)": 1.8904550562236833,
        "Longitude(deg)": -69.82076832132353,
        "Mean Anomaly(deg)": 2.4413361067013732,
        "RAAN(deg)": 29.98443689767581,
        "Satellite Name": "Starlink Shell 1 153",
        "Satellite Number": 153,
        "Semi-Major Axis(m)": 6931778.249405717,
        "Time(s)": 300
    },
    {
        "Altitude(m)": 553952.9305202971,
        "Argument of Periapsis(deg)": 0.010805932864848343,
        "Eccentricity": 0.0,
        "Inclination(deg)": 53.0,
        "Latitude(deg)": 2.3942296607272566,
        "Longitude(deg)": -69.48484536721148,
        "Mean Anomaly(deg)": 3.068167310258126,
        "RAAN(deg)": 29.98391812759834,
        "Satellite Name": "Starlink Shell 1 153",
        "Satellite Number": 153,
        "Semi-Major Axis(m)": 6931778.249405717,
        "Time(s)": 310
    },
    {
        "Altitude(m)": 553902.3267166235,
        "Argument of Periapsis(deg)": 0.01115451134435958,
        "Eccentricity": 0.0,
        "Inclination(deg)": 53.0,
        "Latitude(deg)": 2.8979048017296853,
        "Longitude(deg)": -69.14864081596687,
        "Mean Anomaly(deg)": 3.6949985138148342,
        "RAAN(deg)": 29.98339935752087,
        "Satellite Name": "Starlink Shell 1 153",
        "Satellite Number": 153,
        "Semi-Major Axis(m)": 6931778.249405717,
        "Time(s)": 320
    },
    {
        "Altitude(m)": 553854.5443118677,
        "Argument of Periapsis(deg)": 0.011503089823870818,
        "Eccentricity": 0.0,
        "Inclination(deg)": 53.0,
        "Latitude(deg)": 3.4014574050518416,
        "Longitude(deg)": -68.812096261488,
        "Mean Anomaly(deg)": 4.321829717371549,
        "RAAN(deg)": 29.982880587443393,
        "Satellite Name": "Starlink Shell 1 153",
        "Satellite Number": 153,
        "Semi-Major Axis(m)": 6931778.249405717,
        "Time(s)": 330
    },
    {
        "Altitude(m)": 553809.58282959,
        "Argument of Periapsis(deg)": 0.011851668303382053,
        "Eccentricity": 0.0,
        "Inclination(deg)": 53.0,
        "Latitude(deg)": 3.904864325174765,
        "Longitude(deg)": -68.47515365088333,
        "Mean Anomaly(deg)": 4.948660920928308,
        "RAAN(deg)": 29.982361817365923,
        "Satellite Name": "Starlink Shell 1 153",
        "Satellite Number": 153,
        "Semi-Major Axis(m)": 6931778.249405717,
        "Time(s)": 340
    },
    {
        "Altitude(m)": 553767.4404453376,
        "Argument of Periapsis(deg)": 0.012200246782893292,
        "Eccentricity": 0.0,
        "Inclination(deg)": 53.0,
        "Latitude(deg)": 4.4081023333282445,
        "Longitude(deg)": -68.13775475477655,
        "Mean Anomaly(deg)": 5.575492124484966,
        "RAAN(deg)": 29.981843047288454,
        "Satellite Name": "Starlink Shell 1 153",
        "Satellite Number": 153,
        "Semi-Major Axis(m)": 6931778.249405717,
        "Time(s)": 350
    },
    {
        "Altitude(m)": 553728.1139903094,
        "Argument of Periapsis(deg)": 0.012548825262404526,
        "Eccentricity": 0.0,
        "Inclination(deg)": 53.0,
        "Latitude(deg)": 4.911148105501415,
        "Longitude(deg)": -67.79984063755656,
        "Mean Anomaly(deg)": 6.2023233280417305,
        "RAAN(deg)": 29.981324277210977,
        "Satellite Name": "Starlink Shell 1 153",
        "Satellite Number": 153,
        "Semi-Major Axis(m)": 6931778.249405717,
        "Time(s)": 360
    },
    {
        "Altitude(m)": 553691.5989557195,
        "Argument of Periapsis(deg)": 0.012897403741915765,
        "Eccentricity": 0.0,
        "Inclination(deg)": 53.0,
        "Latitude(deg)": 5.413978210361484,
        "Longitude(deg)": -67.46135264043998,
        "Mean Anomaly(deg)": 6.829154531598433,
        "RAAN(deg)": 29.980805507133507,
        "Satellite Name": "Starlink Shell 1 153",
        "Satellite Number": 153,
        "Semi-Major Axis(m)": 6931778.249405717,
        "Time(s)": 370
    }
]